[{"OBJECT_NAME":"BEIDOU-3 M2 (C20)","OBJECT_ID":"2017-069B","EPOCH":"2026-03-03T06:59:31.065792","MEAN_MOTION":1.86230505,"ECCENTRICITY":0.00096961,"INCLINATION":56.5986,"RA_OF_ASC_NODE":66.6073,"ARG_OF_PERICENTER":328.7489,"MEAN_ANOMALY":31.2236,"EPHEMERIS_TYPE":0,"CLASSIFICATION_TYPE":"U","NORAD_CAT_ID":43002,"ELEMENT_SET_NO":999,"REV_AT_EPOCH":5662,"BSTAR":0,"MEAN_MOTION_DOT":-1.5e-7,"MEAN_MOTION_DDOT":0},{"OBJECT_NAME":"BEIDOU-3 M7 (C27)","OBJECT_ID":"2018-003A","EPOCH":"2026-03-03T00:48:02.079360","MEAN_MOTION":1.86232234,"ECCENTRICITY":0.00046451,"INCLINATION":54.4221,"RA_OF_ASC_NODE":306.018,"ARG_OF_PERICENTER":71.0073,"MEAN_ANOMALY":289.1026,"EPHEMERIS_TYPE":0,"CLASSIFICATION_TYPE":"U","NORAD_CAT_ID":43107,"ELEMENT_SET_NO":999,"REV_AT_EPOCH":5537,"BSTAR":0,"MEAN_MOTION_DOT":-5.7e-7,"MEAN_MOTION_DDOT":0},{"OBJECT_NAME":"BEIDOU-3 M8 (C28)","OBJECT_ID":"2018-003B","EPOCH":"2026-03-02T10:36:24.799680","MEAN_MOTION":1.86230717,"ECCENTRICITY":0.00031388,"INCLINATION":54.4152,"RA_OF_ASC_NODE":306.0214,"ARG_OF_PERICENTER":293.24,"MEAN_ANOMALY":66.7868,"EPHEMERIS_TYPE":0,"CLASSIFICATION_TYPE":"U","NORAD_CAT_ID":43108,"ELEMENT_SET_NO":999,"REV_AT_EPOCH":5537,"BSTAR":0,"MEAN_MOTION_DOT":-5.3e-7,"MEAN_MOTION_DDOT":0},{"OBJECT_NAME":"BEIDOU-3 M4 (C22)","OBJECT_ID":"2018-018A","EPOCH":"2026-03-03T10:06:22.837824","MEAN_MOTION":1.86230898,"ECCENTRICITY":0.00068671,"INCLINATION":56.5592,"RA_OF_ASC_NODE":66.6343,"ARG_OF_PERICENTER":350.5022,"MEAN_ANOMALY":9.5144,"EPHEMERIS_TYPE":0,"CLASSIFICATION_TYPE":"U","NORAD_CAT_ID":43207,"ELEMENT_SET_NO":999,"REV_AT_EPOCH":5477,"BSTAR":0,"MEAN_MOTION_DOT":-1.6e-7,"MEAN_MOTION_DDOT":0},{"OBJECT_NAME":"BEIDOU-3 M3 (C21)","OBJECT_ID":"2018-018B","EPOCH":"2026-03-03T11:42:03.881952","MEAN_MOTION":1.86231048,"ECCENTRICITY":0.00098711,"INCLINATION":56.5587,"RA_OF_ASC_NODE":66.6362,"ARG_OF_PERICENTER":319.6574,"MEAN_ANOMALY":40.2986,"EPHEMERIS_TYPE":0,"CLASSIFICATION_TYPE":"U","NORAD_CAT_ID":43208,"ELEMENT_SET_NO":999,"REV_AT_EPOCH":5477,"BSTAR":0,"MEAN_MOTION_DOT":-1.7e-7,"MEAN_MOTION_DDOT":0},{"OBJECT_NAME":"BEIDOU-3 M9 (C29)","OBJECT_ID":"2018-029A","EPOCH":"2026-03-03T04:01:32.041344","MEAN_MOTION":1.86228161,"ECCENTRICITY":9.153e-5,"INCLINATION":54.2892,"RA_OF_ASC_NODE":303.6573,"ARG_OF_PERICENTER":20.7299,"MEAN_ANOMALY":339.3338,"EPHEMERIS_TYPE":0,"CLASSIFICATION_TYPE":"U","NORAD_CAT_ID":43245,"ELEMENT_SET_NO":999,"REV_AT_EPOCH":5392,"BSTAR":0,"MEAN_MOTION_DOT":-5.3e-7,"MEAN_MOTION_DDOT":0},{"OBJECT_NAME":"BEIDOU-3 M10 (C30)","OBJECT_ID":"2018-029B","EPOCH":"2026-03-03T02:27:46.258272","MEAN_MOTION":1.86228882,"ECCENTRICITY":0.00051054,"INCLINATION":54.2869,"RA_OF_ASC_NODE":303.6873,"ARG_OF_PERICENTER":23.5848,"MEAN_ANOMALY":336.4987,"EPHEMERIS_TYPE":0,"CLASSIFICATION_TYPE":"U","NORAD_CAT_ID":43246,"ELEMENT_SET_NO":999,"REV_AT_EPOCH":5390,"BSTAR":0,"MEAN_MOTION_DOT":-5.3e-7,"MEAN_MOTION_DDOT":0},{"OBJECT_NAME":"BEIDOU-2 IGSO-7 (C16)","OBJECT_ID":"2018-057A","EPOCH":"2026-02-25T17:45:22.620960","MEAN_MOTION":1.00284731,"ECCENTRICITY":0.00999628,"INCLINATION":55.1859,"RA_OF_ASC_NODE":164.0342,"ARG_OF_PERICENTER":236.5988,"MEAN_ANOMALY":133.5173,"EPHEMERIS_TYPE":0,"CLASSIFICATION_TYPE":"U","NORAD_CAT_ID":43539,"ELEMENT_SET_NO":999,"REV_AT_EPOCH":2801,"BSTAR":0,"MEAN_MOTION_DOT":-1.61e-6,"MEAN_MOTION_DDOT":0},{"OBJECT_NAME":"BEIDOU-3 M5 (C23)","OBJECT_ID":"2018-062A","EPOCH":"2026-03-02T18:57:16.384608","MEAN_MOTION":1.86228549,"ECCENTRICITY":0.00020903,"INCLINATION":54.0881,"RA_OF_ASC_NODE":185.9208,"ARG_OF_PERICENTER":310.9128,"MEAN_ANOMALY":49.023,"EPHEMERIS_TYPE":0,"CLASSIFICATION_TYPE":"U","NORAD_CAT_ID":43581,"ELEMENT_SET_NO":999,"REV_AT_EPOCH":5165,"BSTAR":0,"MEAN_MOTION_DOT":-2.4e-7,"MEAN_MOTION_DDOT":0},{"OBJECT_NAME":"BEIDOU-3 M6 (C24)","OBJECT_ID":"2018-062B","EPOCH":"2026-03-03T04:33:04.922784","MEAN_MOTION":1.86227508,"ECCENTRICITY":0.00062694,"INCLINATION":54.0877,"RA_OF_ASC_NODE":185.8964,"ARG_OF_PERICENTER":44.1791,"MEAN_ANOMALY":315.8264,"EPHEMERIS_TYPE":0,"CLASSIFICATION_TYPE":"U","NORAD_CAT_ID":43582,"ELEMENT_SET_NO":999,"REV_AT_EPOCH":5166,"BSTAR":0,"MEAN_MOTION_DOT":-2.0e-7,"MEAN_MOTION_DDOT":0},{"OBJECT_NAME":"BEIDOU-3 M12 (C26)","OBJECT_ID":"2018-067A","EPOCH":"2026-03-02T14:11:11.114304","MEAN_MOTION":1.86227627,"ECCENTRICITY":0.0008588,"INCLINATION":54.1825,"RA_OF_ASC_NODE":184.6546,"ARG_OF_PERICENTER":39.8197,"MEAN_ANOMALY":320.1981,"EPHEMERIS_TYPE":0,"CLASSIFICATION_TYPE":"U","NORAD_CAT_ID":43602,"ELEMENT_SET_NO":999,"REV_AT_EPOCH":5113,"BSTAR":0,"MEAN_MOTION_DOT":-2.6e-7,"MEAN_MOTION_DDOT":0},{"OBJECT_NAME":"BEIDOU-3 M11 (C25)","OBJECT_ID":"2018-067B","EPOCH":"2026-03-02T04:31:59.314944","MEAN_MOTION":1.86227037,"ECCENTRICITY":0.00050133,"INCLINATION":54.1803,"RA_OF_ASC_NODE":184.6321,"ARG_OF_PERICENTER":34.6184,"MEAN_ANOMALY":325.368,"EPHEMERIS_TYPE":0,"CLASSIFICATION_TYPE":"U","NORAD_CAT_ID":43603,"ELEMENT_SET_NO":999,"REV_AT_EPOCH":5115,"BSTAR":0,"MEAN_MOTION_DOT":-2.9e-7,"MEAN_MOTION_DDOT":0},{"OBJECT_NAME":"BEIDOU-3 M13 (C32)","OBJECT_ID":"2018-072A","EPOCH":"2026-03-02T03:28:31.522656","MEAN_MOTION":1.86230769,"ECCENTRICITY":0.00088851,"INCLINATION":56.5306,"RA_OF_ASC_NODE":66.1905,"ARG_OF_PERICENTER":307.5967,"MEAN_ANOMALY":52.3573,"EPHEMERIS_TYPE":0,"CLASSIFICATION_TYPE":"U","NORAD_CAT_ID":43622,"ELEMENT_SET_NO":999,"REV_AT_EPOCH":5066,"BSTAR":0,"MEAN_MOTION_DOT":-7.0e-8,"MEAN_MOTION_DDOT":0},{"OBJECT_NAME":"BEIDOU-3 M14 (C33)","OBJECT_ID":"2018-072B","EPOCH":"2026-03-02T00:14:47.067072","MEAN_MOTION":1.86230813,"ECCENTRICITY":0.00063444,"INCLINATION":56.5324,"RA_OF_ASC_NODE":66.189,"ARG_OF_PERICENTER":328.5825,"MEAN_ANOMALY":31.415,"EPHEMERIS_TYPE":0,"CLASSIFICATION_TYPE":"U","NORAD_CAT_ID":43623,"ELEMENT_SET_NO":999,"REV_AT_EPOCH":5065,"BSTAR":0,"MEAN_MOTION_DOT":-6.0e-8,"MEAN_MOTION_DDOT":0},{"OBJECT_NAME":"BEIDOU-3 M16 (C35)","OBJECT_ID":"2018-078A","EPOCH":"2026-03-02T04:00:42.153984","MEAN_MOTION":1.86232266,"ECCENTRICITY":0.00084346,"INCLINATION":54.1863,"RA_OF_ASC_NODE":303.7392,"ARG_OF_PERICENTER":30.8134,"MEAN_ANOMALY":329.2965,"EPHEMERIS_TYPE":0,"CLASSIFICATION_TYPE":"U","NORAD_CAT_ID":43647,"ELEMENT_SET_NO":999,"REV_AT_EPOCH":5016,"BSTAR":0,"MEAN_MOTION_DOT":-4.8e-7,"MEAN_MOTION_DDOT":0},{"OBJECT_NAME":"BEIDOU-3 M15 (C34)","OBJECT_ID":"2018-078B","EPOCH":"2026-03-02T20:00:05.930208","MEAN_MOTION":1.86232006,"ECCENTRICITY":0.0005313,"INCLINATION":54.1817,"RA_OF_ASC_NODE":303.7166,"ARG_OF_PERICENTER":37.9111,"MEAN_ANOMALY":322.1864,"EPHEMERIS_TYPE":0,"CLASSIFICATION_TYPE":"U","NORAD_CAT_ID":43648,"ELEMENT_SET_NO":999,"REV_AT_EPOCH":5019,"BSTAR":0,"MEAN_MOTION_DOT":-5.2e-7,"MEAN_MOTION_DDOT":0},{"OBJECT_NAME":"BEIDOU-3 G1 (C59)","OBJECT_ID":"2018-085A","EPOCH":"2026-03-03T19:52:32.717280","MEAN_MOTION":1.00268737,"ECCENTRICITY":0.0001324,"INCLINATION":2.8091,"RA_OF_ASC_NODE":100.4023,"ARG_OF_PERICENTER":26.5692,"MEAN_ANOMALY":112.7898,"EPHEMERIS_TYPE":0,"CLASSIFICATION_TYPE":"U","NORAD_CAT_ID":43683,"ELEMENT_SET_NO":999,"REV_AT_EPOCH":2700,"BSTAR":0,"MEAN_MOTION_DOT":-2.91e-6,"MEAN_MOTION_DDOT":0}]
